ONEWEB-0153             
1 48044U 21025C   23324.89508199  .00000283  00000+0  73910-3 0  9998
2 48044  87.8977 147.1431 0001509  92.5594 267.5708 13.13471050130248
ONEWEB-0154             
1 48045U 21025D   23324.89298478  .00000430  00000+0  11421-2 0  9997
2 48045  87.8984 147.1572 0001417  89.7551 270.3741 13.13470988130206
ONEWEB-0116             
1 48046U 21025E   23324.93527458 -.00000227  00000+0 -65588-3 0  9996
2 48046  87.8977 147.1158 0001402  76.5808 283.5478 13.13473004130353
ONEWEB-0150             
1 48047U 21025F   23325.06013972  .00000018  00000+0  13732-4 0  9994
2 48047  87.8982 147.1173 0001650  91.6955 268.4363 13.13469896130262
ONEWEB-0107             
1 48048U 21025G   23325.06224424  .00000002  00000+0 -28785-4 0  9999
2 48048  87.8982 147.1150 0001795  95.4425 264.6909 13.13467302130244
ONEWEB-0101             
1 48049U 21025H   23324.87390632  .00000226  00000+0  58377-3 0  9999
2 48049  87.8976 147.1604 0001427  94.0818 266.0474 13.13473273130196
ONEWEB-0113             
1 48050U 21025J   23324.92682291 -.00000280  00000+0 -80128-3 0  9993
2 48050  87.8920 147.1399 0001383  84.4266 275.7020 13.13469259130282
ONEWEB-0112             
1 48051U 21025K   23324.91411679 -.00000183  00000+0 -53569-3 0  9994
2 48051  87.8981 147.1425 0001589  87.5821 272.5490 13.13468400130293
